<?xml version="1.0" encoding="UTF-8"?>
<gpx xmlns="http://www.topografix.com/GPX/1/1" xmlns:gpxtpx="http://www.garmin.com/xmlschemas/TrackPointExtension/v1" xmlns:xsi="http://www.w3.org/2001/XMLSchema-instance" xsi:schemaLocation="http://www.topografix.com/GPX/1/1 http://www.topografix.com/GPX/1/1/gpx.xsd" version="1.1" creator="gpx.py -- https://github.com/tkrajina/gpxpy">
  <trk>
    <name>gpx from keep</name>
    <type>Walk</type>
    <trkseg>
      <trkpt lat="31.791806644496507" lon="120.50189802184822">
        <ele>5.180069679927032</ele>
        <time>2025-10-05T13:20:49Z</time>
      </trkpt>
      <trkpt lat="31.79183837607017" lon="120.50189737366894">
        <ele>5.0923820833625175</ele>
        <time>2025-10-05T13:20:50Z</time>
      </trkpt>
      <trkpt lat="31.7918721357912" lon="120.50189682524051">
        <ele>5.195912425545748</ele>
        <time>2025-10-05T13:20:51Z</time>
      </trkpt>
      <trkpt lat="31.791909431820446" lon="120.50189259579915">
        <ele>5.201207250445773</ele>
        <time>2025-10-05T13:20:52Z</time>
      </trkpt>
    </trkseg>
  </trk>
</gpx>