<?xml version="1.0" encoding="UTF-8"?>
<gpx xmlns="http://www.topografix.com/GPX/1/1" xmlns:gpxtpx="http://www.garmin.com/xmlschemas/TrackPointExtension/v1" xmlns:xsi="http://www.w3.org/2001/XMLSchema-instance" xsi:schemaLocation="http://www.topografix.com/GPX/1/1 http://www.topografix.com/GPX/1/1/gpx.xsd" version="1.1" creator="gpx.py -- https://github.com/tkrajina/gpxpy">
  <trk>
    <name>gpx from keep</name>
    <type>Walk</type>
    <trkseg>
      <trkpt lat="33.39557085784519" lon="126.23254248697275">
        <ele>1.9680297253391004</ele>
        <time>2025-09-20T06:11:35Z</time>
      </trkpt>
      <trkpt lat="33.395370099714896" lon="126.23240433611497">
        <ele>0.5346101308241487</ele>
        <time>2025-09-20T06:12:07.100000Z</time>
      </trkpt>
      <trkpt lat="33.395310490123705" lon="126.23240859995661">
        <ele>1.8443385530263186</ele>
        <time>2025-09-20T06:12:13Z</time>
      </trkpt>
      <trkpt lat="33.39517507612137" lon="126.23234605659582">
        <ele>2.191826210357249</ele>
        <time>2025-09-20T06:12:31.100000Z</time>
      </trkpt>
      <trkpt lat="33.39514269133813" lon="126.23230798828877">
        <ele>1.131566976197064</ele>
        <time>2025-09-20T06:12:46.100000Z</time>
      </trkpt>
      <trkpt lat="33.395065092369215" lon="126.23223376542025">
        <ele>1.1730499053373933</ele>
        <time>2025-09-20T06:13:04Z</time>
      </trkpt>
      <trkpt lat="33.39498703020267" lon="126.232207023462">
        <ele>1.032423167489469</ele>
        <time>2025-09-20T06:13:13.100000Z</time>
      </trkpt>
      <trkpt lat="33.39493957972799" lon="126.23224929268645">
        <ele>1.2172291101887822</ele>
        <time>2025-09-20T06:13:37.100000Z</time>
      </trkpt>
      <trkpt lat="33.394886908284306" lon="126.23226295096174">
        <ele>2.1787968911230564</ele>
        <time>2025-09-20T06:13:44.100000Z</time>
      </trkpt>
      <trkpt lat="33.39478448412855" lon="126.2322578696842">
        <ele>2.3611871767789125</ele>
        <time>2025-09-20T06:13:58.100000Z</time>
      </trkpt>
      <trkpt lat="33.394731467306976" lon="126.23229312606254">
        <ele>1.0177873661741614</ele>
        <time>2025-09-20T06:14:08.100000Z</time>
      </trkpt>
      <trkpt lat="33.3948220694109" lon="126.2323561407076">
        <ele>2.2859022142365575</ele>
        <time>2025-09-20T06:14:29Z</time>
      </trkpt>
      <trkpt lat="33.3948384914003" lon="126.23241280156891">
        <ele>2.9958232268691063</ele>
        <time>2025-09-20T06:14:35Z</time>
      </trkpt>
      <trkpt lat="33.39483206496735" lon="126.23246915076967">
        <ele>2.2318965727463365</ele>
        <time>2025-09-20T06:14:44Z</time>
      </trkpt>
      <trkpt lat="33.394785497974105" lon="126.2325434590915">
        <ele>2.0488767195492983</ele>
        <time>2025-09-20T06:14:53.100000Z</time>
      </trkpt>
      <trkpt lat="33.39469790331678" lon="126.2326049095082">
        <ele>1.9730095192790031</ele>
        <time>2025-09-20T06:15:35.100000Z</time>
      </trkpt>
      <trkpt lat="33.39460289764973" lon="126.23260265291698">
        <ele>0.9733011005446315</ele>
        <time>2025-09-20T06:15:47.100000Z</time>
      </trkpt>
      <trkpt lat="33.39438245867503" lon="126.2325465707527">
        <ele>2.750430090352893</ele>
        <time>2025-09-20T06:16:10Z</time>
      </trkpt>
      <trkpt lat="33.394300588482025" lon="126.23244071429714">
        <ele>3.6255994252860546</ele>
        <time>2025-09-20T06:16:22Z</time>
      </trkpt>
      <trkpt lat="33.394271517443734" lon="126.23237488346406">
        <ele>2.565983923152089</ele>
        <time>2025-09-20T06:16:28Z</time>
      </trkpt>
      <trkpt lat="33.3942654218858" lon="126.23202437789499">
        <ele>1.5885357987135649</ele>
        <time>2025-09-20T06:16:58Z</time>
      </trkpt>
      <trkpt lat="33.39420947539999" lon="126.23190089296813">
        <ele>-1.190849301405251</ele>
        <time>2025-09-20T06:17:10Z</time>
      </trkpt>
      <trkpt lat="33.39419184420747" lon="126.23185080066636">
        <ele>2.1970255421474576</ele>
        <time>2025-09-20T06:17:41.100000Z</time>
      </trkpt>
      <trkpt lat="33.394157767616655" lon="126.23193407063937">
        <ele>1.8265565503388643</ele>
        <time>2025-09-20T06:18:06Z</time>
      </trkpt>
      <trkpt lat="33.394006288218215" lon="126.23212116517523">
        <ele>4.143504619598389</ele>
        <time>2025-09-20T06:18:28Z</time>
      </trkpt>
      <trkpt lat="33.393938789027395" lon="126.23232559534817">
        <ele>4.010482646524906</ele>
        <time>2025-09-20T06:18:49Z</time>
      </trkpt>
      <trkpt lat="33.39394208292523" lon="126.23239372113245">
        <ele>4.066417175345123</ele>
        <time>2025-09-20T06:18:55Z</time>
      </trkpt>
      <trkpt lat="33.39396949229702" lon="126.23245775680624">
        <ele>4.722559955902398</ele>
        <time>2025-09-20T06:19:01Z</time>
      </trkpt>
      <trkpt lat="33.394211246676406" lon="126.23272744609339">
        <ele>5.417876500636339</ele>
        <time>2025-09-20T06:19:34Z</time>
      </trkpt>
      <trkpt lat="33.394450885163195" lon="126.23295251462642">
        <ele>4.445393715053797</ele>
        <time>2025-09-20T06:20:05Z</time>
      </trkpt>
      <trkpt lat="33.394549456094126" lon="126.23321033476843">
        <ele>4.035764742642641</ele>
        <time>2025-09-20T06:20:29Z</time>
      </trkpt>
      <trkpt lat="33.394473721941594" lon="126.23331997154322">
        <ele>5.414848098531365</ele>
        <time>2025-09-20T06:20:41Z</time>
      </trkpt>
      <trkpt lat="33.39441963260505" lon="126.23335522361633">
        <ele>5.829099710099399</ele>
        <time>2025-09-20T06:20:47Z</time>
      </trkpt>
      <trkpt lat="33.39433427896329" lon="126.23347312800021">
        <ele>5.553474662825465</ele>
        <time>2025-09-20T06:20:59Z</time>
      </trkpt>
      <trkpt lat="33.3943221527745" lon="126.23360713935135">
        <ele>4.533145220950246</ele>
        <time>2025-09-20T06:21:11Z</time>
      </trkpt>
      <trkpt lat="33.394379655260316" lon="126.23356464349753">
        <ele>4.284778827801347</ele>
        <time>2025-09-20T06:21:17Z</time>
      </trkpt>
      <trkpt lat="33.39445290898343" lon="126.23356726930832">
        <ele>4.613865232095122</ele>
        <time>2025-09-20T06:21:23Z</time>
      </trkpt>
      <trkpt lat="33.394577323889905" lon="126.23353811410486">
        <ele>4.966251122765243</ele>
        <time>2025-09-20T06:21:35Z</time>
      </trkpt>
      <trkpt lat="33.39460907293778" lon="126.23349080705974">
        <ele>5.828922793269157</ele>
        <time>2025-09-20T06:21:44Z</time>
      </trkpt>
      <trkpt lat="33.39470802040486" lon="126.23355230956085">
        <ele>4.955890307202935</ele>
        <time>2025-09-20T06:21:56Z</time>
      </trkpt>
      <trkpt lat="33.39477259835217" lon="126.2335666367064">
        <ele>7.685728152282536</ele>
        <time>2025-09-20T06:22:13Z</time>
      </trkpt>
      <trkpt lat="33.39476266207614" lon="126.233506653502">
        <ele>6.314288645982742</ele>
        <time>2025-09-20T06:22:22Z</time>
      </trkpt>
      <trkpt lat="33.39481712173746" lon="126.23352467984981">
        <ele>6.08467701356858</ele>
        <time>2025-09-20T06:22:31Z</time>
      </trkpt>
      <trkpt lat="33.39475214066975" lon="126.23354630250203">
        <ele>6.817225048318505</ele>
        <time>2025-09-20T06:22:37Z</time>
      </trkpt>
      <trkpt lat="33.394646649859645" lon="126.23347839523497">
        <ele>6.430189122445881</ele>
        <time>2025-09-20T06:22:43Z</time>
      </trkpt>
      <trkpt lat="33.39457807101688" lon="126.23339700731931">
        <ele>5.858354786410928</ele>
        <time>2025-09-20T06:22:50Z</time>
      </trkpt>
      <trkpt lat="33.394648576264004" lon="126.23367707656374">
        <ele>8.869909670203924</ele>
        <time>2025-09-20T06:22:56Z</time>
      </trkpt>
      <trkpt lat="33.39476336095558" lon="126.23381887870248">
        <ele>7.43686194345355</ele>
        <time>2025-09-20T06:23:00Z</time>
      </trkpt>
      <trkpt lat="33.39483424199218" lon="126.23379195419366">
        <ele>6.74605146702379</ele>
        <time>2025-09-20T06:23:04Z</time>
      </trkpt>
      <trkpt lat="33.39488208660961" lon="126.23381736721325">
        <ele>6.73081855289638</ele>
        <time>2025-09-20T06:23:15Z</time>
      </trkpt>
      <trkpt lat="33.3947775437122" lon="126.23394064267713">
        <ele>6.760703908279538</ele>
        <time>2025-09-20T06:23:27Z</time>
      </trkpt>
      <trkpt lat="33.394632030077" lon="126.23403318474853">
        <ele>6.48783802986145</ele>
        <time>2025-09-20T06:23:45Z</time>
      </trkpt>
      <trkpt lat="33.39457066495908" lon="126.23410649415408">
        <ele>6.820798519998789</ele>
        <time>2025-09-20T06:23:51Z</time>
      </trkpt>
      <trkpt lat="33.39460911576343" lon="126.2341506671578">
        <ele>6.52987471409142</ele>
        <time>2025-09-20T06:23:54Z</time>
      </trkpt>
      <trkpt lat="33.394654400983164" lon="126.23414179650082">
        <ele>6.497026729397476</ele>
        <time>2025-09-20T06:23:57Z</time>
      </trkpt>
      <trkpt lat="33.39473997475162" lon="126.23424260091244">
        <ele>6.102689889259636</ele>
        <time>2025-09-20T06:24:06Z</time>
      </trkpt>
      <trkpt lat="33.39475961362486" lon="126.23432046480605">
        <ele>5.76803386490792</ele>
        <time>2025-09-20T06:24:13Z</time>
      </trkpt>
      <trkpt lat="33.394879749126375" lon="126.23432352337161">
        <ele>6.580467605963349</ele>
        <time>2025-09-20T06:25:22Z</time>
      </trkpt>
      <trkpt lat="33.395099787385774" lon="126.23457138048019">
        <ele>4.959768857806921</ele>
        <time>2025-09-20T06:25:52Z</time>
      </trkpt>
      <trkpt lat="33.395192319387675" lon="126.23465935778648">
        <ele>5.000753371976316</ele>
        <time>2025-09-20T06:26:04Z</time>
      </trkpt>
      <trkpt lat="33.39530684017781" lon="126.23485976695262">
        <ele>4.143968168646097</ele>
        <time>2025-09-20T06:26:23Z</time>
      </trkpt>
      <trkpt lat="33.39535168590332" lon="126.23490632508714">
        <ele>5.948869950138032</ele>
        <time>2025-09-20T06:26:29Z</time>
      </trkpt>
      <trkpt lat="33.3954419608925" lon="126.23510911704929">
        <ele>4.328862404450774</ele>
        <time>2025-09-20T06:26:47Z</time>
      </trkpt>
      <trkpt lat="33.395457976601755" lon="126.23517931952328">
        <ele>4.634286945685744</ele>
        <time>2025-09-20T06:26:53Z</time>
      </trkpt>
      <trkpt lat="33.395580386127214" lon="126.23547633819817">
        <ele>5.014376850798726</ele>
        <time>2025-09-20T06:27:20Z</time>
      </trkpt>
      <trkpt lat="33.395742016930754" lon="126.23578073392123">
        <ele>4.449900382198393</ele>
        <time>2025-09-20T06:27:50Z</time>
      </trkpt>
      <trkpt lat="33.3959535527567" lon="126.23598968991733">
        <ele>5.316129840910435</ele>
        <time>2025-09-20T06:28:08Z</time>
      </trkpt>
      <trkpt lat="33.39601180469295" lon="126.23605659345034">
        <ele>5.228592715226114</ele>
        <time>2025-09-20T06:28:11Z</time>
      </trkpt>
      <trkpt lat="33.39610442630776" lon="126.23628990819567">
        <ele>4.379557699896395</ele>
        <time>2025-09-20T06:28:20Z</time>
      </trkpt>
      <trkpt lat="33.396101891494034" lon="126.23652726280076">
        <ele>6.387028651311994</ele>
        <time>2025-09-20T06:28:28Z</time>
      </trkpt>
      <trkpt lat="33.39628523313134" lon="126.23661673652964">
        <ele>5.036541052162647</ele>
        <time>2025-09-20T06:28:40Z</time>
      </trkpt>
      <trkpt lat="33.39646252806504" lon="126.23688303241381">
        <ele>4.326564205810428</ele>
        <time>2025-09-20T06:28:58Z</time>
      </trkpt>
      <trkpt lat="33.396548821098136" lon="126.2370223783172">
        <ele>4.933205373585224</ele>
        <time>2025-09-20T06:29:07Z</time>
      </trkpt>
      <trkpt lat="33.39655323163452" lon="126.2370783834109">
        <ele>4.905058955773711</ele>
        <time>2025-09-20T06:29:10Z</time>
      </trkpt>
      <trkpt lat="33.3965887338533" lon="126.2371754555133">
        <ele>5.940640601329505</ele>
        <time>2025-09-20T06:29:16Z</time>
      </trkpt>
      <trkpt lat="33.396694340722924" lon="126.23728726040885">
        <ele>5.22508042678237</ele>
        <time>2025-09-20T06:29:25Z</time>
      </trkpt>
      <trkpt lat="33.396714753620884" lon="126.2373633235388">
        <ele>4.987591746263206</ele>
        <time>2025-09-20T06:29:28Z</time>
      </trkpt>
      <trkpt lat="33.39685891080444" lon="126.2375865198454">
        <ele>6.299199569039047</ele>
        <time>2025-09-20T06:29:37Z</time>
      </trkpt>
      <trkpt lat="33.39702697047189" lon="126.23788613504098">
        <ele>6.05895958468318</ele>
        <time>2025-09-20T06:29:49Z</time>
      </trkpt>
      <trkpt lat="33.39724680795358" lon="126.2381731036331">
        <ele>7.090423436835408</ele>
        <time>2025-09-20T06:30:01Z</time>
      </trkpt>
      <trkpt lat="33.39747387111758" lon="126.23846590896358">
        <ele>6.8961998065933585</ele>
        <time>2025-09-20T06:30:13Z</time>
      </trkpt>
      <trkpt lat="33.39758046223201" lon="126.23859808207462">
        <ele>6.8317275596782565</ele>
        <time>2025-09-20T06:30:19Z</time>
      </trkpt>
      <trkpt lat="33.39780853004222" lon="126.23878057930108">
        <ele>6.911172569729388</ele>
        <time>2025-09-20T06:30:29Z</time>
      </trkpt>
      <trkpt lat="33.39804239347047" lon="126.23897271676728">
        <ele>7.56412120256573</ele>
        <time>2025-09-20T06:30:38Z</time>
      </trkpt>
      <trkpt lat="33.39810475174712" lon="126.23901968088664">
        <ele>7.408308621495962</ele>
        <time>2025-09-20T06:30:41Z</time>
      </trkpt>
      <trkpt lat="33.398168259327704" lon="126.23899126425769">
        <ele>7.092838301323354</ele>
        <time>2025-09-20T06:30:45Z</time>
      </trkpt>
      <trkpt lat="33.398170812027786" lon="126.23875219524339">
        <ele>9.093949749134481</ele>
        <time>2025-09-20T06:30:51Z</time>
      </trkpt>
      <trkpt lat="33.39821969368394" lon="126.23841841537092">
        <ele>5.830711353570223</ele>
        <time>2025-09-20T06:31:00Z</time>
      </trkpt>
      <trkpt lat="33.39824146271802" lon="126.23831980822229">
        <ele>5.477707339450717</ele>
        <time>2025-09-20T06:31:03Z</time>
      </trkpt>
      <trkpt lat="33.39817650452671" lon="126.23823216757079">
        <ele>5.081667325459421</ele>
        <time>2025-09-20T06:31:06Z</time>
      </trkpt>
      <trkpt lat="33.39813355303313" lon="126.23813726887643">
        <ele>5.118522631935775</ele>
        <time>2025-09-20T06:31:09Z</time>
      </trkpt>
      <trkpt lat="33.398078513965274" lon="126.23806495188644">
        <ele>5.468273701146245</ele>
        <time>2025-09-20T06:31:12Z</time>
      </trkpt>
      <trkpt lat="33.39805673143046" lon="126.23795070814015">
        <ele>5.755006082355976</ele>
        <time>2025-09-20T06:31:15Z</time>
      </trkpt>
      <trkpt lat="33.39801516089705" lon="126.23787036134513">
        <ele>5.546293551102281</ele>
        <time>2025-09-20T06:31:18Z</time>
      </trkpt>
      <trkpt lat="33.397725596328826" lon="126.23763853009648">
        <ele>4.312824538908899</ele>
        <time>2025-09-20T06:31:30Z</time>
      </trkpt>
      <trkpt lat="33.39770564158989" lon="126.23757338285066">
        <ele>4.548941591754556</ele>
        <time>2025-09-20T06:31:33Z</time>
      </trkpt>
      <trkpt lat="33.39739007770014" lon="126.23749489853084">
        <ele>4.615718967281282</ele>
        <time>2025-09-20T06:31:45Z</time>
      </trkpt>
      <trkpt lat="33.397304885090904" lon="126.23750470149685">
        <ele>5.469445506110787</ele>
        <time>2025-09-20T06:31:48Z</time>
      </trkpt>
      <trkpt lat="33.39717172617475" lon="126.23765252799349">
        <ele>6.918392774648964</ele>
        <time>2025-09-20T06:31:54Z</time>
      </trkpt>
      <trkpt lat="33.39702170552441" lon="126.23774919723621">
        <ele>7.2653336161747575</ele>
        <time>2025-09-20T06:32:00Z</time>
      </trkpt>
      <trkpt lat="33.396945358303974" lon="126.23775975478746">
        <ele>8.1473039817065</ele>
        <time>2025-09-20T06:32:03Z</time>
      </trkpt>
      <trkpt lat="33.396929531189706" lon="126.23770809592529">
        <ele>8.537257160060108</ele>
        <time>2025-09-20T06:32:06Z</time>
      </trkpt>
      <trkpt lat="33.396892849282416" lon="126.23766470038231">
        <ele>7.14080828987062</ele>
        <time>2025-09-20T06:32:09Z</time>
      </trkpt>
      <trkpt lat="33.396846870696734" lon="126.23764002938123">
        <ele>7.104636685922742</ele>
        <time>2025-09-20T06:32:12Z</time>
      </trkpt>
      <trkpt lat="33.39681367255902" lon="126.23755156990774">
        <ele>6.553915996104479</ele>
        <time>2025-09-20T06:32:15Z</time>
      </trkpt>
      <trkpt lat="33.39674432682932" lon="126.23746021360337">
        <ele>6.758622070774436</ele>
        <time>2025-09-20T06:32:18Z</time>
      </trkpt>
      <trkpt lat="33.396596506139765" lon="126.23720374355493">
        <ele>5.726604736410081</ele>
        <time>2025-09-20T06:32:27Z</time>
      </trkpt>
      <trkpt lat="33.39656403856775" lon="126.23711877426064">
        <ele>5.055097363889217</ele>
        <time>2025-09-20T06:32:30Z</time>
      </trkpt>
      <trkpt lat="33.39655759997328" lon="126.23701252284815">
        <ele>5.178268778137863</ele>
        <time>2025-09-20T06:32:34Z</time>
      </trkpt>
      <trkpt lat="33.39643594821524" lon="126.23681428374908">
        <ele>4.070214234292507</ele>
        <time>2025-09-20T06:32:41Z</time>
      </trkpt>
      <trkpt lat="33.39623404222642" lon="126.23655902369946">
        <ele>4.00341085717082</ele>
        <time>2025-09-20T06:32:56Z</time>
      </trkpt>
      <trkpt lat="33.396267371992245" lon="126.23631210767572">
        <ele>3.5455805519595742</ele>
        <time>2025-09-20T06:33:05Z</time>
      </trkpt>
      <trkpt lat="33.39623561940367" lon="126.23600633546594">
        <ele>4.0616365456953645</ele>
        <time>2025-09-20T06:33:14Z</time>
      </trkpt>
      <trkpt lat="33.39617987939023" lon="126.23597351991458">
        <ele>3.7854019179940224</ele>
        <time>2025-09-20T06:33:53Z</time>
      </trkpt>
      <trkpt lat="33.39617987939023" lon="126.23597351991458">
        <ele>3.7854019179940224</ele>
        <time>2025-09-20T06:33:59.800000Z</time>
      </trkpt>
    </trkseg>
  </trk>
</gpx>