<?xml version="1.0" encoding="UTF-8"?>
<gpx xmlns="http://www.topografix.com/GPX/1/1" xmlns:gpxtpx="http://www.garmin.com/xmlschemas/TrackPointExtension/v1" xmlns:xsi="http://www.w3.org/2001/XMLSchema-instance" xsi:schemaLocation="http://www.topografix.com/GPX/1/1 http://www.topografix.com/GPX/1/1/gpx.xsd" version="1.1" creator="gpx.py -- https://github.com/tkrajina/gpxpy">
  <trk>
    <name>gpx from keep</name>
    <type>Walk</type>
    <trkseg>
      <trkpt lat="31.91718298244162" lon="120.58270530625728">
        <ele>3.642827454023063</ele>
        <time>2025-09-16T11:15:07Z</time>
      </trkpt>
      <trkpt lat="31.917184870061636" lon="120.58269520505768">
        <ele>3.204777643084526</ele>
        <time>2025-09-16T11:15:08Z</time>
      </trkpt>
      <trkpt lat="31.917182380689333" lon="120.58268446947278">
        <ele>3.5755436876788735</ele>
        <time>2025-09-16T11:15:09Z</time>
      </trkpt>
    </trkseg>
  </trk>
</gpx>